$$SOE
2461309.500000000, A.D. 2026-Sep-26 00:00:00.0000, -1.268784797734672E+08, 3.510021316495603E+08, 3.509879534591925E+07,
2461316.500000000, A.D. 2026-Oct-03 00:00:00.0000, -1.348305267284481E+08, 3.450845171863358E+08, 3.144277156619479E+07,
2461323.500000000, A.D. 2026-Oct-10 00:00:00.0000, -1.426553591761406E+08, 3.388410934713814E+08, 2.775705744128592E+07,
2461330.500000000, A.D. 2026-Oct-17 00:00:00.0000, -1.503421268769442E+08, 3.322695417392030E+08, 2.404446333121814E+07,
2461337.500000000, A.D. 2026-Oct-24 00:00:00.0000, -1.578795217788525E+08, 3.253676971561162E+08, 2.030797076529098E+07,
2461344.500000000, A.D. 2026-Oct-31 00:00:00.0000, -1.652557531348899E+08, 3.181335752506835E+08, 1.655074553641939E+07,
2461351.500000000, A.D. 2026-Nov-07 00:00:00.0000, -1.724585214852463E+08, 3.105654016682856E+08, 1.277615167969957E+07,
2461358.500000000, A.D. 2026-Nov-14 00:00:00.0000, -1.794749914266668E+08, 3.026616465333173E+08, 8.987766436236188E+06,
2461365.500000000, A.D. 2026-Nov-21 00:00:00.0000, -1.862917651487042E+08, 2.944210645411751E+08, 5.189396466748059E+06,
2461372.500000000, A.D. 2026-Nov-28 00:00:00.0000, -1.928948579500919E+08, 2.858427382575665E+08, 1.385095196169943E+06,
2461379.500000000, A.D. 2026-Dec-05 00:00:00.0000, -1.992696723894684E+08, 2.769261244893710E+08, -2.420819069801092E+06,
2461386.500000000, A.D. 2026-Dec-12 00:00:00.0000, -2.054009712655362E+08, 2.676711074073238E+08, -6.223744003628418E+06,
2461393.500000000, A.D. 2026-Dec-19 00:00:00.0000, -2.112728517623627E+08, 2.580780590544541E+08, -1.001877292312366E+07,
2461400.500000000, A.D. 2026-Dec-26 00:00:00.0000, -2.168687214471487E+08, 2.481479070386905E+08, -1.380067335545379E+07,
2461407.500000000, A.D. 2027-Jan-02 00:00:00.0000, -2.221712765128370E+08, 2.378822099146768E+08, -1.756386459902376E+07,
2461414.500000000, A.D. 2027-Jan-09 00:00:00.0000, -2.271624829695016E+08, 2.272832409939623E+08, -2.130239438946407E+07,
2461421.500000000, A.D. 2027-Jan-16 00:00:00.0000, -2.318235617561678E+08, 2.163540813278602E+08, -2.500991481765298E+07,
2461428.500000000, A.D. 2027-Jan-23 00:00:00.0000, -2.361349789495340E+08, 2.050987225679674E+08, -2.867965771659771E+07,
2461435.500000000, A.D. 2027-Jan-30 00:00:00.0000, -2.400764423405595E+08, 1.935221803892187E+08, -3.230440982828818E+07,
2461442.500000000, A.D. 2027-Feb-06 00:00:00.0000, -2.436269056712300E+08, 1.816306194944842E+08, -3.587648814725254E+07,
2461449.500000000, A.D. 2027-Feb-13 00:00:00.0000, -2.467645830002719E+08, 1.694314919902803E+08, -3.938771579587300E+07,
2461456.500000000, A.D. 2027-Feb-20 00:00:00.0000, -2.494669779023439E+08, 1.569336887429835E+08, -4.282939890907104E+07,
2461463.500000000, A.D. 2027-Feb-27 00:00:00.0000, -2.517109288038512E+08, 1.441477006605174E+08, -4.619230570538817E+07,
2461470.500000000, A.D. 2027-Mar-06 00:00:00.0000, -2.534726705091160E+08, 1.310857916296825E+08, -4.946664882791650E+07,
2461477.500000000, A.D. 2027-Mar-13 00:00:00.0000, -2.547279169986293E+08, 1.177621844985155E+08, -5.264207181849654E+07,
2461484.500000000, A.D. 2027-Mar-20 00:00:00.0000, -2.554519705094642E+08, 1.041932580281641E+08, -5.570764111996040E+07,
2461491.500000000, A.D. 2027-Mar-27 00:00:00.0000, -2.556198609048245E+08, 9.039775227278082E+07, -5.865184536810587E+07,
2461498.500000000, A.D. 2027-Apr-03 00:00:00.0000, -2.552065195807760E+08, 7.639697939178593E+07, -6.146260397219166E+07,
2461505.500000000, A.D. 2027-Apr-10 00:00:00.0000, -2.541869924092691E+08, 6.221503580248926E+07, -6.412728724314179E+07,
2461512.500000000, A.D. 2027-Apr-17 00:00:00.0000, -2.525366961627121E+08, 4.787901015593648E+07, -6.663275058955303E+07,
2461519.500000000, A.D. 2027-Apr-24 00:00:00.0000, -2.502317224302509E+08, 3.341917996914750E+07, -6.896538552916804E+07,
2461526.500000000, A.D. 2027-May-01 00:00:00.0000, -2.472491920553052E+08, 1.886918805240009E+07, -7.111119041716614E+07,
2461533.500000000, A.D. 2027-May-08 00:00:00.0000, -2.435676618663109E+08, 4.266188687419236E+06, -7.305586375197284E+07,
2461540.500000000, A.D. 2027-May-15 00:00:00.0000, -2.391675854320744E+08, -1.034904819892369E+07, -7.478492257702835E+07,
2461547.500000000, A.D. 2027-May-22 00:00:00.0000, -2.340318271147562E+08, -2.493209193310805E+07, -7.628384838574697E+07,
2461554.500000000, A.D. 2027-May-29 00:00:00.0000, -2.281462205070650E+08, -3.943488239713529E+07, -7.753826260091008E+07,
2461561.500000000, A.D. 2027-Jun-05 00:00:00.0000, -2.215001607897385E+08, -5.380585119280737E+07, -7.853413202722576E+07,
2461568.500000000, A.D. 2027-Jun-12 00:00:00.0000, -2.140872187701103E+08, -6.799014858505630E+07, -7.925800315305790E+07,
2461575.500000000, A.D. 2027-Jun-19 00:00:00.0000, -2.059057576196247E+08, -8.192999194282305E+07, -7.969726257625900E+07,
2461582.500000000, A.D. 2027-Jun-26 00:00:00.0000, -1.969595276130718E+08, -9.556514748054743E+07, -7.984041861036332E+07,
2461589.500000000, A.D. 2027-Jul-03 00:00:00.0000, -1.872582096840366E+08, -1.088335516902178E+08, -7.967739660765001E+07,
2461596.500000000, A.D. 2027-Jul-10 00:00:00.0000, -1.768178752092812E+08, -1.216720717643413E+08, -7.919983797438297E+07,
2461603.500000000, A.D. 2027-Jul-17 00:00:00.0000, -1.656613278245005E+08, -1.340173955110593E+08, -7.840139051138094E+07,
2461610.500000000, A.D. 2027-Jul-24 00:00:00.0000, -1.538182939407526E+08, -1.458070311862591E+08, -7.727797590791690E+07,
2461617.500000000, A.D. 2027-Jul-31 00:00:00.0000, -1.413254325061519E+08, -1.569803868617069E+08, -7.582801926680851E+07,
2461624.500000000, A.D. 2027-Aug-07 00:00:00.0000, -1.282261426724523E+08, -1.674798882539228E+08, -7.405262563437125E+07,
2461631.500000000, A.D. 2027-Aug-14 00:00:00.0000, -1.145701607817438E+08, -1.772520875956520E+08, -7.195569004080720E+07,
2461638.500000000, A.D. 2027-Aug-21 00:00:00.0000, -1.004129482447711E+08, -1.862487147928841E+08, -6.954393111851777E+07,
2461645.500000000, A.D. 2027-Aug-28 00:00:00.0000, -8.581488334511541E+07, -1.944276173685282E+08, -6.682684255194945E+07,
2461652.500000000, A.D. 2027-Sep-04 00:00:00.0000, -7.084028850819227E+07, -2.017535389551981E+08, -6.381656125629241E+07,
2461659.500000000, A.D. 2027-Sep-11 00:00:00.0000, -5.555633662624041E+07, -2.081986983736768E+08, -6.052765692362940E+07,
2461666.500000000, A.D. 2027-Sep-18 00:00:00.0000, -4.003188682301939E+07, -2.137431441064331E+08, -5.697685291887085E+07,
2461673.500000000, A.D. 2027-Sep-25 00:00:00.0000, -2.433630374749511E+07, -2.183748734117235E+08, -5.318269276757006E+07,
2461680.500000000, A.D. 2027-Oct-02 00:00:00.0000, -8.538313572551781E+06, -2.220897207052454E+08, -4.916516938371088E+07,
2461687.500000000, A.D. 2027-Oct-09 00:00:00.0000, 7.295055633384349E+06, -2.248910340956773E+08, -4.494533549164341E+07,
2461694.500000000, A.D. 2027-Oct-16 00:00:00.0000, 2.309941061961239E+07, -2.267891705106371E+08, -4.054491335816857E+07,
2461701.500000000, A.D. 2027-Oct-23 00:00:00.0000, 3.881377969766641E+07, -2.278008476135095E+08, -3.598592016521302E+07,
2461708.500000000, A.D. 2027-Oct-30 00:00:00.0000, 5.438123462765095E+07, -2.279483938981264E+08, -3.129032244623545E+07,
2461715.500000000, A.D. 2027-Nov-06 00:00:00.0000, 6.974934267992519E+07, -2.272589378519485E+08, -2.647972934000053E+07,
2461722.500000000, A.D. 2027-Nov-13 00:00:00.0000, 8.487045293077466E+07, -2.257635771518303E+08, -2.157513093570654E+07,
2461729.500000000, A.D. 2027-Nov-20 00:00:00.0000, 9.970183336734571E+07, -2.234965635677444E+08, -1.659668498339136E+07,
2461736.500000000, A.D. 2027-Nov-27 00:00:00.0000, 1.142056793042537E+08, -2.204945274171995E+08, -1.156355174899568E+07,
2461743.500000000, A.D. 2027-Dec-04 00:00:00.0000, 1.283490128627486E+08, -2.167957604186553E+08, -6.493774323452353E+06,
2461750.500000000, A.D. 2027-Dec-11 00:00:00.0000, 1.421034955732031E+08, -2.124395709637566E+08, -1.404200341101006E+06,
2461757.500000000, A.D. 2027-Dec-18 00:00:00.0000, 1.554451761886365E+08, -2.074657192292292E+08, 3.689559949981570E+06,
2461764.500000000, A.D. 2027-Dec-25 00:00:00.0000, 1.683541937651300E+08, -2.019139341959352E+08, 8.773144858294442E+06,
2461771.500000000, A.D. 2028-Jan-01 00:00:00.0000, 1.808144534051231E+08, -1.958235107140139E+08, 1.383342731598092E+07,
$$EOE